[{"OBJECT_NAME":"CINEMA","OBJECT_ID":"2012-048G","EPOCH":"2026-03-09T23:21:38.910528","MEAN_MOTION":15.41758997,"ECCENTRICITY":0.00644529,"INCLINATION":64.645,"RA_OF_ASC_NODE":61.8658,"ARG_OF_PERICENTER":204.5071,"MEAN_ANOMALY":155.2999,"EPHEMERIS_TYPE":0,"CLASSIFICATION_TYPE":"U","NORAD_CAT_ID":38764,"ELEMENT_SET_NO":999,"REV_AT_EPOCH":10191,"BSTAR":0.00076174658,"MEAN_MOTION_DOT":0.0003483,"MEAN_MOTION_DDOT":0},{"OBJECT_NAME":"STARLINK-35942","OBJECT_ID":"2025-286B","EPOCH":"2026-03-09T03:14:49.163136","MEAN_MOTION":15.30183767,"ECCENTRICITY":0.00015205,"INCLINATION":53.1621,"RA_OF_ASC_NODE":0.903,"ARG_OF_PERICENTER":51.6518,"MEAN_ANOMALY":308.462,"EPHEMERIS_TYPE":0,"CLASSIFICATION_TYPE":"U","NORAD_CAT_ID":66926,"ELEMENT_SET_NO":999,"REV_AT_EPOCH":1533,"BSTAR":0.0006344393,"MEAN_MOTION_DOT":0.00018468,"MEAN_MOTION_DDOT":0}]
